CALSPHERE 1             
1 00900U 64063C   09242.25952579  .00000152  00000-0  16123-3 0  8734
2 00900  90.1624 328.3424 0027876  15.6364 344.5668 13.70485723229610
CALSPHERE 2             
1 00902U 64063E   09242.21652506  .00000075  00000-0  10000-3 0  1431
2 00902  90.1652 331.2918 0019734  37.1280 323.1223 13.52466831 27372
LCS 1                   
1 01361U 65034C   09241.75649804  .00000009  00000-0  10000-3 0  1476
2 01361  32.1464 344.3717 0007367 260.3426  99.6237  9.89276627602648
TEMPSAT 1               
1 01512U 65065E   09242.68083128  .00000059  00000-0  10000-3 0  2243
2 01512  89.8095 299.0180 0068995 189.9198 170.0580 13.33259163142555
CALSPHERE 4(A)          
1 01520U 65065H   09242.47403065  .00000061  00000-0  10000-3 0  3609
2 01520  90.1792  84.5990 0071580 117.0299 243.8167 13.35319820144165
OPS 5712 (P/L 160)      
1 02826U 67053A   09242.81377060  .00000328  00000-0  12730-3 0  8109
2 02826  69.9351 356.5743 0006419  30.5023 329.6484 14.38303373178028
OPS 5712 (P/L 153)      
1 02874U 67053H   09242.80609948 -.00000017  00000-0  26720-4 0  2008
2 02874  69.9740 292.2657 0009539 241.8540 118.1600 13.95926729150951
SURCAL 150B             
1 02909U 67053J   09242.34082430  .00000372  00000-0  12006-3 0  9851
2 02909  69.9545 170.2500 0005717 243.8777 116.1776 14.46525597183697
RIGIDSPHERE 2 (LCS 4)   
1 05398U 71067E   09242.09678269  .00000191  00000-0  64372-4 0  6477
2 05398  87.6200 229.1304 0063475 293.6991  65.7580 14.31171137995132
RADCAT                  
1 06212U 72076A   09242.77198455  .00001466  00000-0  55401-4 0  8193
2 06212  98.5949 262.3951 0004655 101.9057 258.2687 15.29062209134279
